STARLINK-31999          
1 60101U 24117L   24205.58334491 -.02151129  00000+0 -44791-1 0  9991
2 60101  53.1598 278.5263 0001370  70.3285 163.5173 15.48607923  5859
STARLINK-31954          
1 60102U 24117M   24205.58334491  .00073544  00000+0  13198-2 0  9990
2 60102  53.1605 278.5190 0001251  80.1567 155.8033 15.49269133  5653
STARLINK-32013          
1 60103U 24117N   24205.58334491  .00030240  00000+0  54995-3 0  9998
2 60103  53.1600 278.5179 0001420  96.8310 141.0377 15.49293919  5853
STARLINK-32009          
1 60104U 24117P   24205.58334491 -.01086125  00000+0 -21290-1 0  9995
2 60104  53.1599 277.9157 0001754  99.7404  69.4699 15.49667424  5920
STARLINK-32018          
1 60105U 24117Q   24205.58334491  .00004634  00000+0  91334-4 0  9997
2 60105  53.1601 278.5059 0001260  77.0313 166.5790 15.49304982  5921
STARLINK-32045          
1 60106U 24117R   24205.58334491  .00000417  00000+0  15555-4 0  9994
2 60106  53.1601 278.5100 0001185  73.4446 168.2507 15.49305798  5709
STARLINK-32035          
1 60107U 24117S   24204.91667824 -.00031380  00000+0 -55803-3 0  9994
2 60107  53.1595 281.6881 0001199 101.2794  23.7714 15.49327683  5818
STARLINK-32042          
1 60108U 24117T   24205.58334491  .00025241  00000+0  46066-3 0  9998
2 60108  53.1600 278.4937 0001503  85.4717 163.8819 15.49293926  5813
STARLINK-32040          
1 60109U 24117U   24204.91667824 -.00032003  00000+0 -56930-3 0  9991
2 60109  53.1595 281.6839 0001423 104.5770  22.3865 15.49328435  5811
STARLINK-32001          
1 60110U 24117V   24204.91667824 -.00029837  00000+0 -53009-3 0  9998
2 60110  53.1595 281.6760 0001448 107.7479  23.0418 15.49327552  5815
STARLINK-32015          
1 60111U 24117W   24204.91667824 -.00030047  00000+0 -53389-3 0  9995
2 60111  53.1596 281.6717 0001224 111.2791  21.4237 15.49328389  5717
STARLINK-32024          
1 60112U 24117X   24204.91667824 -.00029482  00000+0 -52366-3 0  9991
2 60112  53.1595 281.6678 0001147 109.6609  24.9547 15.49328411  5815
STARLINK-11201 [DTC]    
1 60113U 24118A   24205.46249637 -.00083873  00000+0 -51470-3 0  9991
2 60113  53.1518 272.7750 0001030  67.6145 292.4984 15.76676687  5528
STARLINK-11198 [DTC]    
1 60114U 24118B   24205.46042036  .00013452  00000+0  86248-4 0  9992
2 60114  53.1514 272.7591 0001097  62.1066 298.0066 15.76677443  5516
STARLINK-11112 [DTC]    
1 60115U 24118C   24205.39397750  .00049460  00000+0  30566-3 0  9990
2 60115  53.1521 273.0516 0002678 135.8674 224.2560 15.76634775  5729
STARLINK-11210 [DTC]    
1 60116U 24118D   24205.45245522  .00034949  00000+0  21720-3 0  9995
2 60116  53.1533 272.7055 0001646  96.2394 263.8815 15.76670743  5514
STARLINK-11203 [DTC]    
1 60117U 24118E   24205.38417492  .00056277  00000+0  34491-3 0  9992
2 60117  53.1541 272.9906 0001667  83.3813 276.7397 15.76771378  5667
STARLINK-11177 [DTC]    
1 60118U 24118F   24205.37928804  .00107918  00000+0  65399-3 0  9996
2 60118  53.1535 272.9591 0001246 142.3773 217.7335 15.76764248  5671
STARLINK-11127 [DTC]    
1 60119U 24118G   24205.43779422 -.00089330  00000+0 -54883-3 0  9999
2 60119  53.1532 272.6087 0003552  21.6126 338.5044 15.76663678  5516
STARLINK-11164 [DTC]    
1 60120U 24118H   24205.43292419  .00051258  00000+0  31554-3 0  9993
2 60120  53.1525 272.5756 0001401  77.7610 282.3568 15.76710544  5740
STARLINK-11119 [DTC]    
1 60121U 24118J   24205.23301499  .00342445  00000+0  19916-2 0  9999
2 60121  53.1547 273.4656 0005787  19.6263 340.4980 15.76961039  5644
STARLINK-11157 [DTC]    
1 60122U 24118K   24205.42804737  .00023757  00000+0  14865-3 0  9995
2 60122  53.1546 272.5496 0001655 123.0224 237.0956 15.76743080  5416
STARLINK-11162 [DTC]    
1 60123U 24118L   24204.21394487  .02106752  00000+0  10746-1 0  9999
2 60123  53.1553 278.4844 0005689 186.9835 173.1108 15.77877991  4445
STARLINK-11161 [DTC]    
1 60124U 24118M   24204.71610833  .00099861  00000+0  60050-3 0  9996
2 60124  53.1578 275.9257 0007420 177.0505 183.0561 15.76938460  4523
STARLINK-11160 [DTC]    
1 60125U 24118N   24205.47189034  .00061527  00000+0  37719-3 0  9999
2 60125  53.1531 272.1048 0001248  53.5024 306.6112 15.76729146  5745
STARLINK-31846          
1 60126U 24118P   24205.16667824  .00003965  00000+0  10904-3 0  9993
2 60126  53.1595 276.3612 0001560 114.3320  30.1778 15.39624410  5666
STARLINK-31840          
1 60127U 24118Q   24205.00002315 -.00011549  00000+0 -27924-3 0  9994
2 60127  53.1576 277.3478 0001128  86.1571 112.9977 15.39614801  5563
STARLINK-31813          
1 60128U 24118R   24205.50001157 -.00006181  00000+0 -14471-3 0  9992
2 60128  53.1579 274.8904 0001496  94.3357  49.1271 15.39608058  5648
STARLINK-31845          
1 60129U 24118S   24205.38685742  .00019156  00000+0  35319-3 0  9995
2 60129  53.1602 275.1697 0001289 134.2420 225.8695 15.49183151  5628
STARLINK-31838          
1 60130U 24118T   24205.38612976  .00049965  00000+0  89955-3 0  9992
2 60130  53.1579 275.1711 0001044 106.6523 253.4601 15.49344759  5623
STARLINK-31785          
1 60131U 24118U   24205.13185935 -.00342979  00000+0 -80735-2 0  9995
2 60131  53.1593 276.4289 0005568   1.2021 358.8998 15.42699494  5588
STARLINK-31792          
1 60132U 24118V   24205.50001157 -.01737925  00000+0 -22911-1 0  9991
2 60132  53.1593 272.0108 0001339  72.0191  64.3776 15.60778367  5688
GOES 19                 
1 60133U 24119A   24204.63082624 -.00000180  00000+0  00000+0 0  9991
2 60133   0.0989 250.3651 0004879 195.4927 352.5097  1.00273113   344
FALCON HEAVY R/B        
1 60134U 24119B   24204.54169960 -.00000082  00000+0  00000+0 0  9992
2 60134   4.3835  94.4338 3014328 181.6517 176.8333  1.51715677   416
STARLINK-32043          
1 60135U 24120A   24205.50001157 -.01534938  00000+0 -24459-1 0  9995
2 60135  53.1596 210.4930 0000814  68.3152 285.5049 15.55927466  5113
STARLINK-32112          
1 60136U 24120B   24205.50001157 -.01532985  00000+0 -24424-1 0  9998
2 60136  53.1594 210.4889 0000963  69.5593 286.4058 15.55926074  5330
STARLINK-32050          
1 60137U 24120C   24205.50001157 -.01530310  00000+0 -24380-1 0  9990
2 60137  53.1597 210.4849 0000664  71.2941 286.8161 15.55924420  4954
STARLINK-32025          
1 60138U 24120D   24205.50001157 -.01537826  00000+0 -24507-1 0  9991
2 60138  53.1597 210.4776 0001129  67.2327 295.1645 15.55928715  5068
STARLINK-31867          
1 60139U 24120E   24205.50001157 -.01532924  00000+0 -24423-1 0  9993
2 60139  53.1598 210.4818 0000989  70.5146 289.7398 15.55925734  5114
STARLINK-31694          
1 60140U 24120F   24205.50001157 -.01531947  00000+0 -24407-1 0  9991
2 60140  53.1598 210.4721 0000878  74.4431 290.1011 15.55925094  5337
STARLINK-32036          
1 60141U 24120G   24205.50001157 -.01534036  00000+0 -24442-1 0  9993
2 60141  53.1596 210.4677 0001009  60.5185 306.1683 15.55926581  5330
STARLINK-32031          
1 60142U 24120H   24205.50001157 -.01534127  00000+0 -24443-1 0  9996
2 60142  53.1596 210.4626 0001065  60.8188 308.0125 15.55926754  5337
STARLINK-32027          
1 60143U 24120J   24205.50001157 -.00872945  00000+0 -90937-2 0  9991
2 60143  53.1531 209.8128 0000768  59.2615 264.1733 15.66193014  5347
STARLINK-32033          
1 60144U 24120K   24205.50001157 -.01531272  00000+0 -24395-1 0  9992
2 60144  53.1595 210.4532 0000882  71.8632 301.2589 15.55924927  5111
STARLINK-32029          
1 60145U 24120L   24205.50001157 -.01533898  00000+0 -24441-1 0  9991
2 60145  53.1596 210.4475 0000816  73.5226 301.7437 15.55926717  5176
STARLINK-32127          
1 60146U 24120M   24205.50001157 -.01534523  00000+0 -24450-1 0  9998
2 60146  53.1596 210.4417 0001033  65.1936 312.2158 15.55927163  5117
STARLINK-32019          
1 60147U 24120N   24205.50001157 -.01533591  00000+0 -24435-1 0  9996
2 60147  53.1592 210.4369 0000890  68.3876 311.1676 15.55926583  5172
STARLINK-32021          
1 60148U 24120P   24205.50001157 -.01529248  00000+0 -24362-1 0  9990
2 60148  53.1597 210.4343 0000592  79.1186 302.5820 15.55923907  5333
STARLINK-32022          
1 60149U 24120Q   24205.50001157 -.01533468  00000+0 -24434-1 0  9990
2 60149  53.1594 210.4293 0000749  75.4954 308.3491 15.55926546  5331
STARLINK-32014          
1 60150U 24120R   24205.50001157 -.01536020  00000+0 -24476-1 0  9995
2 60150  53.1598 210.4259 0001053  60.3596 325.6283 15.55927903  5174
STARLINK-32004          
1 60151U 24120S   24205.50001157 -.01533519  00000+0 -24434-1 0  9990
2 60151  53.1592 210.4151 0000884  74.4237 315.8549 15.55926316  5330
STARLINK-32147          
1 60152U 24120T   24205.50001157 -.01530769  00000+0 -24386-1 0  9991
2 60152  53.1597 210.4214 0000899  67.1869 320.9472 15.55924764  5171
STARLINK-32131          
1 60153U 24120U   24205.50001157 -.01530612  00000+0 -24384-1 0  9997
2 60153  53.1597 210.4073 0000837  75.3799 319.1884 15.55924426  5330
STARLINK-32145          
1 60154U 24120V   24205.50001157 -.01535589  00000+0 -24468-1 0  9999
2 60154  53.1597 210.4128 0001116  61.2491 331.1726 15.55927610  5210
STARLINK-32137          
1 60155U 24120W   24205.50001157 -.01535405  00000+0 -24465-1 0  9994
2 60155  53.1596 210.4050 0001111  61.7564 334.9547 15.55927328  5167
STARLINK-32048          
1 60156U 24120X   24205.50001157 -.01532738  00000+0 -24420-1 0  9992
2 60156  53.1584 210.3955 0000938  70.7390 328.1176 15.55925809  5177
STARLINK-32129          
1 60157U 24120Y   24205.50001157 -.01532609  00000+0 -24417-1 0  9996
2 60157  53.1595 210.3949 0001034  58.4783 342.5224 15.55925697  5337
ZHONGXING-3A            
1 60179U 24122A   24204.87826962 -.00000312  00000+0  00000+0 0  9999
2 60179   0.0545 217.0236 0001161  66.5577  75.2555  1.00269995   342
